SAUDISAT 1C (SO-50)     
1 27607U 02058C   26191.08192997  .00000486  00000+0  75179-4 0  9991
2 27607  64.5517  58.1476 0074678 258.2262 101.0460 14.83092603267858
SAUDISAT 2              
1 28371U 04025F   26190.49027406  .00000155  00000+0  45779-4 0  9998
2 28371  98.5516 191.0492 0023770 226.2459 133.6771 14.56696323168998
SAUDISAT 3              
1 31118U 07012B   26191.44734747  .00000145  00000+0  31532-4 0  9990
2 31118  98.1465 141.8647 0015286 148.9878 211.2234 14.71438786 31162
SALSAT                  
1 46495U 20068K   26191.42889773  .00005381  00000+0  18731-3 0  9990
2 46495  97.8857 195.9138 0008699 210.5134 149.5600 15.30129687318917
